{
  "norad_id": 53896,
  "name": "STARLINK-5037",
  "history": [
    {
      "epoch": "2026-03-28T16:17:55.098816Z",
      "apogee_km": 540.665871457335,
      "perigee_km": 538.8326316006796,
      "latitude_deg": 4.10038578841e-06,
      "longitude_deg": 168.13632750773016,
      "height_km": 540.6556051136762,
      "semi_major_axis_km": 6917.886251529007,
      "eccentricity": 0.0001325,
      "inclination_deg": 53.2168,
      "raan_deg": 238.712,
      "arg_perigee_deg": 90.6666,
      "mean_anomaly_deg": 269.4478,
      "mean_motion_rev_day": 15.08838082
    }
  ]
}